[Satellite]
VERSION=1.1
NAME=MET-2/21
NICKNAME=MET-2/21
TLE1=1 22782U 93055A   20156.81245882  .00000011  00000-0 -29721-5 0  9994
TLE2=2 22782  82.5502 243.6097 0021048 270.4056 226.0887 13.83827371351561
STATUS=0
